KUIPER-00069            
1 64816U 25151A   25205.59667536  .00019863  00000+0  57348-3 0  9996
2 64816  51.8775 247.4399 0006093 162.6272 197.4924 15.35651741  2457
KUIPER-00070            
1 64817U 25151B   25205.60050051  .00019730  00000+0  58207-3 0  9995
2 64817  51.8770 247.4637 0005578 185.7220 174.3703 15.34978766  2451
KUIPER-00071            
1 64818U 25151C   25205.59742703  .00020803  00000+0  60272-3 0  9994
2 64818  51.8776 247.4470 0005592 167.7419 192.3704 15.35513800  1274
KUIPER-00072            
1 64819U 25151D   25205.53394579  .00021593  00000+0  63270-3 0  9991
2 64819  51.8768 247.7669 0005263 179.6302 180.4689 15.35135057  1260
KUIPER-00073            
1 64820U 25151E   25205.59864325  .00029307  00000+0  84935-3 0  9992
2 64820  51.8778 247.4569 0005582 176.4392 183.6634 15.35302723  2450
KUIPER-00074            
1 64821U 25151F   25205.59834864  .00019585  00000+0  57136-3 0  9998
2 64821  51.8767 247.4478 0005488 175.9237 184.1794 15.35337504  1272
KUIPER-00075            
1 64822U 25151G   25205.53266534  .00013223  00000+0  38922-3 0  9991
2 64822  51.8781 247.7651 0005219 167.5103 192.6013 15.35372932  1267
KUIPER-00076            
1 64823U 25151H   25205.53357725  .00022737  00000+0  66405-3 0  9992
2 64823  51.8769 247.7647 0004908 182.4255 177.6708 15.35207536  1268
KUIPER-00077            
1 64824U 25151J   25205.58335648  .00065230  00000+0  18857-2 0  9990
2 64824  51.8780 247.5434 0005720 183.1160  86.5384 15.35007575  1304
KUIPER-00078            
1 64825U 25151K   25205.58335648  .00064318  00000+0  18578-2 0  9997
2 64825  51.8772 247.5385 0005895 185.4701  85.0663 15.35039135  1301
KUIPER-00079            
1 64826U 25151L   25205.59629494  .00020376  00000+0  58658-3 0  9994
2 64826  51.8777 247.4379 0006255 161.8667 198.2543 15.35724212  2479
KUIPER-00080            
1 64827U 25151M   25205.59785296  .00020431  00000+0  59352-3 0  9992
2 64827  51.8779 247.4507 0005254 171.2707 188.8371 15.35442492  1271
KUIPER-00082            
1 64828U 25151N   25205.53216855  .00021866  00000+0  63229-3 0  9998
2 64828  51.8773 247.7569 0005640 166.5726 193.5411 15.35541668  1266
KUIPER-00083            
1 64829U 25151P   25205.59891109  .00020839  00000+0  61134-3 0  9998
2 64829  51.8767 247.4525 0005507 174.6733 185.4312 15.35119613  2463
KUIPER-00084            
1 64830U 25151Q   25205.60019128  .00018505  00000+0  54602-3 0  9994
2 64830  51.8778 247.4639 0006026 188.2371 171.8516 15.35016881  1275
KUIPER-00085            
1 64831U 25151R   25205.58335648  .00065991  00000+0  18684-2 0  9990
2 64831  51.8775 247.5039 0005784 161.3236 126.3188 15.35654674  2224
KUIPER-00086            
1 64832U 25151S   25205.59975386  .00021553  00000+0  63327-3 0  9992
2 64832  51.8768 247.4586 0005942 187.0728 173.0174 15.35047520  1274
KUIPER-00087            
1 64833U 25151T   25205.59721154  .00328607  00000+0  88997-2 0  9994
2 64833  51.8777 247.4466 0003693 180.4856 179.6127 15.35814925  1273
KUIPER-00089            
1 64834U 25151U   25205.59905981 -.00049798  00000+0 -14393-2 0  9999
2 64834  51.8783 247.4582 0005415 176.4655 183.6370 15.35063788  1274
KUIPER-00090            
1 64835U 25151V   25205.60029492  .00021733  00000+0  64055-3 0  9994
2 64835  51.8776 247.4654 0006062 190.7828 169.3029 15.34942481  1274
KUIPER-00091            
1 64836U 25151W   25205.59667482  .00034705  00000+0  99262-3 0  9991
2 64836  51.8774 247.4384 0005863 162.0280 198.0914 15.35628980  1273
KUIPER-00092            
1 64837U 25151X   25205.53272053  .00012878  00000+0  37906-3 0  9996
2 64837  51.8770 247.7590 0005660 171.4048 188.7036 15.35397882  2471
KUIPER-00093            
1 64838U 25151Y   25205.59901808  .00201077  00000+0  55987-2 0  9999
2 64838  51.8780 247.4593 0004830 197.7209 162.3609 15.35500559  1279
KUIPER-00094            
1 64839U 25151Z   25205.59763819  .00020055  00000+0  58228-3 0  9995
2 64839  51.8771 247.4437 0005551 170.1747 189.9349 15.35470628  1279
2025-135BT              
1 64840U 25135BT  25205.57442349  .00001448  00000+0  14665-3 0  9991
2 64840  97.7477 319.4790 0005525   4.0964 356.0299 14.92455525  5010
2025-135BU              
1 64841U 25135BU  25205.51382067  .00006559  00000+0  64149-3 0  9996
2 64841  97.7499 319.4058 0007669 228.8118 131.2440 14.92646782  5007
STARLINK-34723          
1 64842U 25152A   25205.59100558 -.00219142  18586-4 -64148-3 0  9995
2 64842  97.5976  57.2070 0000628  57.2135 302.9199 15.92646361   870
STARLINK-34725          
1 64843U 25152B   25205.59072622 -.00175198  12820-4 -50914-3 0  9999
2 64843  97.5972  57.2079 0000771  71.2697 288.8660 15.92767673   879
STARLINK-34709          
1 64844U 25152C   25205.59043472  .00129987  86157-5  37624-3 0  9992
2 64844  97.5970  57.2081 0001121 120.2785 239.8600 15.93038144   879
STARLINK-34706          
1 64845U 25152D   25205.58335648 -.00875816  23689-3 -25752-2 0  9999
2 64845  97.5970  57.2014 0001008  67.0237 254.2332 15.92663774  1438
STARLINK-34736          
1 64846U 25152E   25205.52701119  .00238401  23696-4  68426-3 0  9990
2 64846  97.5976  57.1380 0001079  95.3642 264.7755 15.93153187   866
STARLINK-34746          
1 64847U 25152F   25205.58952580 -.00217908  18500-4 -62148-3 0  9991
2 64847  97.5974  57.2091 0000910  80.3994 279.7383 15.93146169   878
STARLINK-34748          
1 64848U 25152G   25205.58920623 -.00242096  22223-4 -68777-3 0  9992
2 64848  97.5977  57.2096 0000659  70.9349 289.1997 15.93229182   879
STARLINK-34756          
1 64849U 25152H   25205.58890941 -.00238252  21633-4 -67301-3 0  9997
2 64849  97.5975  57.2098 0000833  77.4435 282.6932 15.93336786   878
STARLINK-34757          
1 64850U 25152J   25205.58335648 -.00929132  26574-3 -26651-2 0  9991
2 64850  97.5973  57.2053 0001020  87.2732 242.8203 15.93148294  1434
STARLINK-34722          
1 64851U 25152K   25205.58335648 -.00942862  27337-3 -26909-2 0  9991
2 64851  97.5973  57.2059 0001084  85.4538 246.3871 15.93246707  1309
STARLINK-34564          
1 64852U 25152L   25205.58335648 -.00953107  27917-3 -27077-2 0  9997
2 64852  97.5973  57.2067 0001071  74.2087 259.2978 15.93336032  1436
STARLINK-34676          
1 64853U 25152M   25205.58335648 -.00960438  28346-3 -27148-2 0  9999
2 64853  97.5974  57.2075 0001072  68.2924 267.0118 15.93433643  1430
STARLINK-34682          
1 64854U 25152N   25205.58335648 -.00969708  28885-3 -27275-2 0  9998
2 64854  97.5973  57.2083 0001100  83.0662 254.0063 15.93529387  1431
STARLINK-34631          
1 64855U 25152P   25205.58707119 -.00262491  25821-4 -71937-3 0  9993
2 64855  97.5977  57.2123 0000659  54.0742 306.0594 15.93921080   876
STARLINK-34578          
1 64856U 25152Q   25205.58677082 -.00282255  29426-4 -77014-3 0  9996
2 64856  97.5979  57.2125 0000658  36.7587 323.3732 15.94009435   872
STARLINK-34683          
1 64857U 25152R   25205.58335648 -.01010962  31301-3 -28019-2 0  9995
2 64857  97.5974  57.2105 0001001  82.1585 260.0875 15.93816971  1430
STARLINK-34654          
1 64858U 25152S   25205.58616464  .01116947  57725-3  30796-2 0  9995
2 64858  97.5972  57.2128 0001510  80.3560 279.7885 15.94025331   870
STARLINK-34575          
1 64859U 25152T   25205.58335648 -.01031309  32545-3 -28298-2 0  9995
2 64859  97.5975  57.2122 0001095  81.0730 264.7693 15.94010405  1433
STARLINK-34570          
1 64860U 25152U   25205.58557228 -.00302874  33554-4 -81047-3 0  9998
2 64860  97.5984  57.2143 0000702  15.1851 344.9444 15.94382760   872
STARLINK-34651          
1 64861U 25152V   25205.58526825 -.00317041  36497-4 -84417-3 0  9993
2 64861  97.5983  57.2149 0000739  42.7159 317.4172 15.94479642   874
STARLINK-34684          
1 64862U 25152W   25205.58493431 -.00340562  41642-4 -90224-3 0  9995
2 64862  97.5987  57.2157 0000509  56.7419 303.3904 15.94579488   873
STARLINK-34690          
1 64863U 25152X   25205.58462005 -.00334631  40370-4 -88140-3 0  9990
2 64863  97.5985  57.2159 0000555  60.3245 299.8085 15.94687740   873
STARLINK-34628          
1 64864U 25152Y   25205.58429345 -.00328704  39121-4 -86048-3 0  9992
2 64864  97.5987  57.2165 0000660  39.7551 320.3772 15.94802289   870
STARLINK-34544          
1 64865U 25152Z   25205.58400222 -.00319326  37147-4 -83161-3 0  9995
2 64865  97.5987  57.2167 0000707  32.5946 327.5372 15.94897896   877
2025-153A               
1 64866U 25153A   25204.16735413  .00000048  00000+0  00000+0 0  9999
2 64866   9.6145  90.6957 1964411 181.0910   6.3828  7.28141034    39
2025-153B               
1 64867U 25153B   25204.16729250  .00000048  00000+0  00000+0 0  9992
2 64867   9.6872  90.6085 1945468 181.1298   6.3330  7.30990734    29
2025-153C               
1 64868U 25153C   25204.23237664  .00000048  00000+0  00000+0 0  9994
2 64868   9.7233  90.4432 1940000 181.1353 178.1975  7.32145905    22
2025-154A               
1 64869U 25154A   25205.63206598 -.00000055  00000+0  00000+0 0  9992
2 64869  97.7163 271.6985 0004441 232.7310 271.5692 14.91500740   134
2025-154B               
1 64870U 25154B   25205.63172794 -.00000055  00000+0  00000+0 0  9994
2 64870  97.7138 271.6969 0003680 271.2643 232.9522 14.92102118   121
2025-154C               
1 64871U 25154C   25205.63167543 -.00000055  00000+0  00000+0 0  9991
2 64871  97.7130 271.6983 0004244 271.6592 232.4400 14.92159658   125
2025-154D               
1 64872U 25154D   25205.63666211 -.00000055  00000+0  00000+0 0  9998
2 64872  97.7126 271.7042 0004193 276.1025 254.8889 14.92202146   122
2025-154E               
1 64873U 25154E   25205.63662390 -.00000055  00000+0  00000+0 0  9993
2 64873  97.7164 271.7044 0005043 280.6085 250.6488 14.92363276   129
2025-154F               
1 64874U 25154F   25204.88668102 -.00000066  00000+0  00000+0 0  9999
2 64874  97.4414 270.8437 0001248  48.5243  62.6942 15.17331808    08
